GAOFEN-11 01            
1 43585U 18063A   26196.92546162  .00008364  00000+0  12133-3 0  9995
2 43585  97.1274 263.7363 0003135 196.2113 163.9042 15.56079082444811
ICESAT-2                
1 43613U 18070A   26196.90052129  .00005230  00000+0  19036-3 0  9996
2 43613  92.0096 298.7384 0005616  57.5127 302.6664 15.28184383436846
HYSIS                   
1 43719U 18096A   26196.97141350  .00000533  00000+0  79722-4 0  9993
2 43719  97.9833 263.4916 0001835  82.5651 277.5768 14.78671552411677
KAZSTSAT                
1 43783U 18099AB  26196.04993678  .00000476  00000+0  42847-4 0  9997
2 43783  97.4318 226.7225 0007370 341.6349  18.4608 14.99955337415486
SAUDISAT 5A             
1 43831U 18102A   26196.97555395  .00002804  00000+0  10416-3 0  9991
2 43831  97.3051 258.0042 0010368  41.3393 318.8630 15.28325205420073
SAUDISAT 5B             
1 43833U 18102C   26196.92423671  .00002673  00000+0  98707-4 0  9993
2 43833  97.3161 261.0757 0011151  42.8701 317.3407 15.28567826420189
GAOFEN-10R              
1 44622U 19066A   26196.96348253  .00000507  00000+0  69094-4 0  9997
2 44622  98.0509 150.7542 0006843  50.9817 309.2005 14.83057996366642
CARTOSAT-3              
1 44804U 19081A   26196.93962047  .00001449  00000+0  72002-4 0  9995
2 44804  97.4296 258.3413 0012975  56.5343 303.7130 15.19186606367832
GAOFEN-12 01            
1 44819U 19082A   26197.00711823  .00000152  00000+0  26512-4 0  9990
2 44819  97.8109 202.6270 0000925  55.2675 304.8625 14.80479819358350
CSG-1                   
1 44873U 19092A   26196.94587568  .00000173  00000+0  28235-4 0  9997
2 44873  97.8897  20.1330 0001476  90.8267 269.3115 14.82157162355732
NEMO-HD                 
1 46277U 20061F   26196.95346186  .00006143  00000+0  13150-3 0  9997
2 46277  97.1903 258.6242 0001004  99.0017 261.1346 15.45147768326425
SENTINEL-6A             
1 46984U 20086A   26196.89550299 -.00000037  00000+0  10612-3 0  9991
2 46984  66.0412  75.4259 0007785 269.7432  90.2691 12.80930207264005
CAS500-1                
1 47932U 21022A   26196.96005146  .00002970  00000+0  14045-3 0  9991
2 47932  97.3864  91.6259 0005259 168.4903 191.6454 15.20135568295134
GAOFEN-12 02            
1 48079U 21026A   26196.95368729  .00000141  00000+0  25465-4 0  9993
2 48079  97.9935 195.0185 0005883 130.2069 229.9658 14.80316385286013
PLEIADES NEO 3          
1 48268U 21034A   26196.95444573 -.00000054  00000+0 -24203-6 0  9990
2 48268  97.8945 271.3069 0001322  94.7480 265.3884 14.81666791281916
PLEIADES NEO 4          
1 49070U 21073E   26196.92067139  .00000627  00000+0  86254-4 0  9997
2 49070  97.8944 271.2698 0001364  92.0813 268.0557 14.81674001265621
LANDSAT 9               
1 49260U 21088A   26196.76321640  .00000153  00000+0  44080-4 0  9991
2 49260  98.2270 266.5929 0001134  88.7311 271.4018 14.57095694255169
CSG-2                   
1 51444U 22008A   26196.97960652 -.00000113  00000+0 -76102-5 0  9995
2 51444  97.8884  20.1602 0001513  85.1424 274.9961 14.82149469240854
GAOFEN-12 03            
1 52912U 22069A   26196.98852172  .00000966  00000+0  13414-3 0  9990
2 52912  97.8247  84.1285 0002435  71.9317 288.2160 14.80078155218870
SWOT                    
1 54754U 22173A   26196.92720919  .00000007  00000+0  64896-5 0  9997
2 54754  77.6110 356.5097 0000241  74.7148 285.4030 14.00172453183171
GAOFEN-12 04            
1 57654U 23123A   26196.94076272  .00000435  00000+0  64678-4 0  9995
2 57654  97.9101 114.5287 0003481  48.9369 311.2143 14.79776007156880
PARS 1                  
1 59065U 24039Q   26196.92261318  .00006321  00000+0  12999-3 0  9993
2 59065  97.4839 178.7627 0009687  24.6292 335.5417 15.46299462133081
RESURS-P 4              
1 59371U 24061A   26196.93314041  .00001597  00000+0  53672-4 0  9995
2 59371  97.2759 144.3358 0003226  88.5117 271.6495 15.32282498128163
LEGION 1                
1 59625U 24081A   26196.85876775  .00001872  00000+0  98577-4 0  9996
2 59625  97.5011 274.4117 0007716 266.9117  93.1233 15.16846140121888
LEGION 2                
1 59626U 24081B   26196.88916363  .00002058  00000+0  10799-3 0  9994
2 59626  97.5012 274.5386 0010275 230.6141 129.4183 15.16825746121895
ALOS-4 (DAICHI-4)       
1 60182U 24123A   26196.90249058  .00002030  00000+0  27865-3 0  9995
2 60182  97.9220 293.6663 0001586  93.4874 266.6519 14.79470580110123
LEGION 3                
1 60452U 24146A   26196.60018415  .00001517  00000+0  92046-4 0  9991
2 60452  45.0018 238.2179 0008173 336.2741  23.7759 15.15657172106330
LEGION 4                
1 60453U 24146B   26196.86355569  .00001704  00000+0  10165-3 0  9993
2 60453  45.0029 328.6733 0008969 117.8748 242.3040 15.15684241105222
SENTINEL-2C             
1 60989U 24157A   26196.77395792  .00000045  00000+0  33758-4 0  9992
2 60989  98.5684 271.1502 0000965 104.1193 256.0097 14.30815758 97075
IONOSFERA-M 1           
1 61735U 24199A   26196.95704434  .00000020  00000+0  28357-4 0  9997
2 61735  98.7134  69.8205 0002147  71.8074 288.3338 14.22759224131791
