OBJECT_NAME,OBJECT_ID,EPOCH,MEAN_MOTION,ECCENTRICITY,INCLINATION,RA_OF_ASC_NODE,ARG_OF_PERICENTER,MEAN_ANOMALY,EPHEMERIS_TYPE,CLASSIFICATION_TYPE,NORAD_CAT_ID,ELEMENT_SET_NO,REV_AT_EPOCH,BSTAR,MEAN_MOTION_DOT,MEAN_MOTION_DDOT
GAOFEN-11 01,2018-063A,2026-07-15T22:12:39.883968,15.56079082,.00031354,97.1274,263.7363,196.2113,163.9042,0,U,43585,999,44481,.12133213E-3,.8364E-4,0
ICESAT-2,2018-070A,2026-07-15T21:36:45.039456,15.28184383,.00056162,92.0096,298.7384,57.5127,302.6664,0,U,43613,999,43684,.19035824E-3,.523E-4,0
HYSIS,2018-096A,2026-07-15T23:18:50.126400,14.78671552,.00018351,97.9833,263.4916,82.5651,277.5768,0,U,43719,999,41167,.79721889E-4,.533E-5,0
KAZSTSAT,2018-099AB,2026-07-15T01:11:54.537792,14.99955337,.00073704,97.4318,226.7225,341.6349,18.4608,0,U,43783,999,41548,.42847369E-4,.476E-5,0
SAUDISAT 5A,2018-102A,2026-07-15T23:24:47.861280,15.28325205,.00103684,97.3051,258.0042,41.3393,318.8630,0,U,43831,999,42007,.10416396E-3,.2804E-4,0
SAUDISAT 5B,2018-102C,2026-07-15T22:10:54.051744,15.28567826,.0011151,97.3161,261.0757,42.8701,317.3407,0,U,43833,999,42018,.98707156E-4,.2673E-4,0
GAOFEN-10R,2019-066A,2026-07-15T23:07:24.890592,14.83057996,.00068436,98.0509,150.7542,50.9817,309.2005,0,U,44622,999,36664,.69093913E-4,.507E-5,0
CARTOSAT-3,2019-081A,2026-07-15T22:33:03.208608,15.19186606,.00129753,97.4296,258.3413,56.5343,303.7130,0,U,44804,999,36783,.7200244E-4,.1449E-4,0
GAOFEN-12 01,2019-082A,2026-07-16T00:10:15.015072,14.80479819,.00009259,97.8109,202.6270,55.2675,304.8625,0,U,44819,999,35835,.26512206E-4,.152E-5,0
CSG-1,2019-092A,2026-07-15T22:42:03.658752,14.82157162,.00014764,97.8897,20.1330,90.8267,269.3115,0,U,44873,999,35573,.28234541E-4,.173E-5,0
NEMO-HD,2020-061F,2026-07-15T22:52:59.104704,15.45147768,.00010043,97.1903,258.6242,99.0017,261.1346,0,U,46277,999,32642,.1315003E-3,.6143E-4,0
SENTINEL-6A,2020-086A,2026-07-15T21:29:31.458336,12.80930207,.00077851,66.0412,75.4259,269.7432,90.2691,0,U,46984,999,26400,.10611681E-3,-.37E-6,0
CAS500-1,2021-022A,2026-07-15T23:02:28.446144,15.20135568,.00052599,97.3864,91.6259,168.4903,191.6454,0,U,47932,999,29513,.14045164E-3,.297E-4,0
GAOFEN-12 02,2021-026A,2026-07-15T22:53:18.581856,14.80316385,.00058835,97.9935,195.0185,130.2069,229.9658,0,U,48079,999,28601,.25464618E-4,.141E-5,0
PLEIADES NEO 3,2021-034A,2026-07-15T22:54:24.111072,14.81666791,.00013227,97.8945,271.3069,94.7480,265.3884,0,U,48268,999,28191,-.242025E-6,-.54E-6,0
PLEIADES NEO 4,2021-073E,2026-07-15T22:05:46.008096,14.81674001,.00013648,97.8944,271.2698,92.0813,268.0557,0,U,49070,999,26562,.86254388E-4,.627E-5,0
LANDSAT 9,2021-088A,2026-07-15T18:19:01.896960,14.57095694,.00011348,98.2270,266.5929,88.7311,271.4018,0,U,49260,999,25516,.44079792E-4,.153E-5,0
CSG-2,2022-008A,2026-07-15T23:30:38.003328,14.82149469,.00015131,97.8884,20.1602,85.1424,274.9961,0,U,51444,999,24085,-.7610218E-5,-.113E-5,0
GAOFEN-12 03,2022-069A,2026-07-15T23:43:28.276608,14.80078155,.00024355,97.8247,84.1285,71.9317,288.2160,0,U,52912,999,21887,.1341446E-3,.966E-5,0
SWOT,2022-173A,2026-07-15T22:15:10.874016,14.00172453,.00002414,77.6110,356.5097,74.7148,285.4030,0,U,54754,999,18317,.6489647E-5,.7E-7,0
GAOFEN-12 04,2023-123A,2026-07-15T22:34:41.899008,14.79776007,.00034819,97.9101,114.5287,48.9369,311.2143,0,U,57654,999,15688,.64677876E-4,.435E-5,0
PARS 1,2024-039Q,2026-07-15T22:08:33.778752,15.46299462,.00096871,97.4839,178.7627,24.6292,335.5417,0,U,59065,999,13308,.12999232E-3,.6321E-4,0
RESURS-P 4,2024-061A,2026-07-15T22:23:43.331424,15.32282498,.00032263,97.2759,144.3358,88.5117,271.6495,0,U,59371,999,12816,.53671884E-4,.1597E-4,0
LEGION 1,2024-081A,2026-07-15T20:36:37.533600,15.16846140,.00077162,97.5011,274.4117,266.9117,93.1233,0,U,59625,999,12188,.98577277E-4,.1872E-4,0
LEGION 2,2024-081B,2026-07-15T21:20:23.737632,15.16825746,.00102753,97.5012,274.5386,230.6141,129.4183,0,U,59626,999,12189,.10798963E-3,.2058E-4,0
ALOS-4 (DAICHI-4),2024-123A,2026-07-15T21:39:35.186112,14.79470580,.00015864,97.9220,293.6663,93.4874,266.6519,0,U,60182,999,11012,.2786452E-3,.203E-4,0
LEGION 3,2024-146A,2026-07-15T14:24:15.910560,15.15657172,.00081739,45.0018,238.2179,336.2741,23.7759,0,U,60452,999,10633,.92046137E-4,.1517E-4,0
LEGION 4,2024-146B,2026-07-15T20:43:31.211616,15.15684241,.00089691,45.0029,328.6733,117.8748,242.3040,0,U,60453,999,10522,.10165243E-3,.1704E-4,0
SENTINEL-2C,2024-157A,2026-07-15T18:34:29.964288,14.30815758,.00009654,98.5684,271.1502,104.1193,256.0097,0,U,60989,999,9707,.33757852E-4,.45E-6,0
IONOSFERA-M 1,2024-199A,2026-07-15T22:58:08.630976,14.22759224,.00021477,98.7134,69.8205,71.8074,288.3338,0,U,61735,999,13179,.2835703E-4,.2E-6,0
